CCSDS_OMM_VERS = 2.0
CREATION_DATE  = 
ORIGINATOR     = 

OBJECT_NAME    = ORBVIEW 2 (SEASTAR)
OBJECT_ID      = 1997-037A
CENTER_NAME    = EARTH
REF_FRAME      = TEME
TIME_SYSTEM    = UTC
MEAN_ELEMENT_THEORY = SGP/SGP4

EPOCH          = 2025-11-29T16:06:25.283808
MEAN_MOTION    = 14.35401001
ECCENTRICITY   = .0002319
INCLINATION    = 98.8451
RA_OF_ASC_NODE = 130.4170
ARG_OF_PERICENTER = 20.5686
MEAN_ANOMALY   = 339.5592

EPHEMERIS_TYPE = 0
CLASSIFICATION_TYPE = U
NORAD_CAT_ID   = 24883
ELEMENT_SET_NO = 999
REV_AT_EPOCH   = 49412
BSTAR          = .12615E-3
MEAN_MOTION_DOT = .316E-5
MEAN_MOTION_DDOT = 0

CCSDS_OMM_VERS = 2.0
CREATION_DATE  = 
ORIGINATOR     = 

OBJECT_NAME    = SL-16 R/B
OBJECT_ID      = 1998-043G
CENTER_NAME    = EARTH
REF_FRAME      = TEME
TIME_SYSTEM    = UTC
MEAN_ELEMENT_THEORY = SGP/SGP4

EPOCH          = 2025-11-29T19:37:47.638272
MEAN_MOTION    = 14.26020493
ECCENTRICITY   = .0008996
INCLINATION    = 98.8105
RA_OF_ASC_NODE = 281.5650
ARG_OF_PERICENTER = 308.4745
MEAN_ANOMALY   = 51.5627

EPHEMERIS_TYPE = 0
CLASSIFICATION_TYPE = U
NORAD_CAT_ID   = 25400
ELEMENT_SET_NO = 999
REV_AT_EPOCH   = 42475
BSTAR          = .53969E-4
MEAN_MOTION_DOT = .84E-6
MEAN_MOTION_DDOT = 0

CCSDS_OMM_VERS = 2.0
CREATION_DATE  = 
ORIGINATOR     = 

OBJECT_NAME    = SL-16 R/B
OBJECT_ID      = 1998-045B
CENTER_NAME    = EARTH
REF_FRAME      = TEME
TIME_SYSTEM    = UTC
MEAN_ELEMENT_THEORY = SGP/SGP4

EPOCH          = 2025-11-29T13:20:53.579616
MEAN_MOTION    = 14.16173223
ECCENTRICITY   = .0007719
INCLINATION    = 71.0127
RA_OF_ASC_NODE = 32.1517
ARG_OF_PERICENTER = 195.9603
MEAN_ANOMALY   = 164.1278

EPHEMERIS_TYPE = 0
CLASSIFICATION_TYPE = U
NORAD_CAT_ID   = 25407
ELEMENT_SET_NO = 999
REV_AT_EPOCH   = 41292
BSTAR          = .15736E-3
MEAN_MOTION_DOT = .264E-5
MEAN_MOTION_DDOT = 0

CCSDS_OMM_VERS = 2.0
CREATION_DATE  = 
ORIGINATOR     = 

OBJECT_NAME    = ISS (ZARYA)
OBJECT_ID      = 1998-067A
CENTER_NAME    = EARTH
REF_FRAME      = TEME
TIME_SYSTEM    = UTC
MEAN_ELEMENT_THEORY = SGP/SGP4

EPOCH          = 2025-11-29T20:01:44.058144
MEAN_MOTION    = 15.49193835
ECCENTRICITY   = .0003723
INCLINATION    = 51.6312
RA_OF_ASC_NODE = 206.3646
ARG_OF_PERICENTER = 184.1118
MEAN_ANOMALY   = 175.9840

EPHEMERIS_TYPE = 0
CLASSIFICATION_TYPE = U
NORAD_CAT_ID   = 25544
ELEMENT_SET_NO = 999
REV_AT_EPOCH   = 54085
BSTAR          = .15237E-3
MEAN_MOTION_DOT = .801E-4
MEAN_MOTION_DDOT = 0

CCSDS_OMM_VERS = 2.0
CREATION_DATE  = 
ORIGINATOR     = 

OBJECT_NAME    = CZ-4B R/B
OBJECT_ID      = 1999-025C
CENTER_NAME    = EARTH
REF_FRAME      = TEME
TIME_SYSTEM    = UTC
MEAN_ELEMENT_THEORY = SGP/SGP4

EPOCH          = 2025-11-29T16:58:10.225056
MEAN_MOTION    = 14.18238514
ECCENTRICITY   = .0036048
INCLINATION    = 98.6789
RA_OF_ASC_NODE = 15.2775
ARG_OF_PERICENTER = 272.4922
MEAN_ANOMALY   = 197.3685

EPHEMERIS_TYPE = 0
CLASSIFICATION_TYPE = U
NORAD_CAT_ID   = 25732
ELEMENT_SET_NO = 999
REV_AT_EPOCH   = 37399
BSTAR          = .58096E-4
MEAN_MOTION_DOT = .77E-6
MEAN_MOTION_DDOT = 0

CCSDS_OMM_VERS = 2.0
CREATION_DATE  = 
ORIGINATOR     = 

OBJECT_NAME    = OKEAN-O
OBJECT_ID      = 1999-039A
CENTER_NAME    = EARTH
REF_FRAME      = TEME
TIME_SYSTEM    = UTC
MEAN_ELEMENT_THEORY = SGP/SGP4

EPOCH          = 2025-11-29T17:49:00.376608
MEAN_MOTION    = 14.80125484
ECCENTRICITY   = .0000938
INCLINATION    = 97.9622
RA_OF_ASC_NODE = 29.5556
ARG_OF_PERICENTER = 74.0002
MEAN_ANOMALY   = 286.1313

EPHEMERIS_TYPE = 0
CLASSIFICATION_TYPE = U
NORAD_CAT_ID   = 25860
ELEMENT_SET_NO = 999
REV_AT_EPOCH   = 41960
BSTAR          = .11014E-3
MEAN_MOTION_DOT = .783E-5
MEAN_MOTION_DDOT = 0

CCSDS_OMM_VERS = 2.0
CREATION_DATE  = 
ORIGINATOR     = 

OBJECT_NAME    = SL-16 R/B
OBJECT_ID      = 1999-039B
CENTER_NAME    = EARTH
REF_FRAME      = TEME
TIME_SYSTEM    = UTC
MEAN_ELEMENT_THEORY = SGP/SGP4

EPOCH          = 2025-11-29T17:59:56.071392
MEAN_MOTION    = 14.81556096
ECCENTRICITY   = .0013991
INCLINATION    = 98.0145
RA_OF_ASC_NODE = 27.8993
ARG_OF_PERICENTER = 217.5694
MEAN_ANOMALY   = 142.4542

EPHEMERIS_TYPE = 0
CLASSIFICATION_TYPE = U
NORAD_CAT_ID   = 25861
ELEMENT_SET_NO = 999
REV_AT_EPOCH   = 42206
BSTAR          = .91796E-4
MEAN_MOTION_DOT = .667E-5
MEAN_MOTION_DDOT = 0

CCSDS_OMM_VERS = 2.0
CREATION_DATE  = 
ORIGINATOR     = 

OBJECT_NAME    = DELTA 2 R/B
OBJECT_ID      = 1999-041E
CENTER_NAME    = EARTH
REF_FRAME      = TEME
TIME_SYSTEM    = UTC
MEAN_ELEMENT_THEORY = SGP/SGP4

EPOCH          = 2025-11-29T18:06:58.129344
MEAN_MOTION    = 14.11346700
ECCENTRICITY   = .050488
INCLINATION    = 51.7621
RA_OF_ASC_NODE = 340.2786
ARG_OF_PERICENTER = 53.5014
MEAN_ANOMALY   = 311.1340

EPHEMERIS_TYPE = 0
CLASSIFICATION_TYPE = U
NORAD_CAT_ID   = 25876
ELEMENT_SET_NO = 999
REV_AT_EPOCH   = 34891
BSTAR          = .20114E-3
MEAN_MOTION_DOT = .1001E-4
MEAN_MOTION_DDOT = 0

CCSDS_OMM_VERS = 2.0
CREATION_DATE  = 
ORIGINATOR     = 

OBJECT_NAME    = HELIOS 1B
OBJECT_ID      = 1999-064A
CENTER_NAME    = EARTH
REF_FRAME      = TEME
TIME_SYSTEM    = UTC
MEAN_ELEMENT_THEORY = SGP/SGP4

EPOCH          = 2025-11-29T18:01:47.153280
MEAN_MOTION    = 14.87196351
ECCENTRICITY   = .0002268
INCLINATION    = 98.1752
RA_OF_ASC_NODE = 228.0322
ARG_OF_PERICENTER = 59.9998
MEAN_ANOMALY   = 300.1442

EPHEMERIS_TYPE = 0
CLASSIFICATION_TYPE = U
NORAD_CAT_ID   = 25977
ELEMENT_SET_NO = 999
REV_AT_EPOCH   = 67040
BSTAR          = .21408E-3
MEAN_MOTION_DOT = .1868E-4
MEAN_MOTION_DDOT = 0

CCSDS_OMM_VERS = 2.0
CREATION_DATE  = 
ORIGINATOR     = 

OBJECT_NAME    = TERRA
OBJECT_ID      = 1999-068A
CENTER_NAME    = EARTH
REF_FRAME      = TEME
TIME_SYSTEM    = UTC
MEAN_ELEMENT_THEORY = SGP/SGP4

EPOCH          = 2025-11-29T18:57:43.332768
MEAN_MOTION    = 14.60928550
ECCENTRICITY   = .0003302
INCLINATION    = 97.9768
RA_OF_ASC_NODE = 25.9484
ARG_OF_PERICENTER = 124.0808
MEAN_ANOMALY   = 300.6715

EPHEMERIS_TYPE = 0
CLASSIFICATION_TYPE = U
NORAD_CAT_ID   = 25994
ELEMENT_SET_NO = 999
REV_AT_EPOCH   = 38049
BSTAR          = .11334E-3
MEAN_MOTION_DOT = .51E-5
MEAN_MOTION_DDOT = 0

CCSDS_OMM_VERS = 2.0
CREATION_DATE  = 
ORIGINATOR     = 

OBJECT_NAME    = SL-16 R/B
OBJECT_ID      = 2000-006B
CENTER_NAME    = EARTH
REF_FRAME      = TEME
TIME_SYSTEM    = UTC
MEAN_ELEMENT_THEORY = SGP/SGP4

EPOCH          = 2025-11-29T16:29:10.885920
MEAN_MOTION    = 14.15804654
ECCENTRICITY   = .0017708
INCLINATION    = 71.0023
RA_OF_ASC_NODE = 308.1027
ARG_OF_PERICENTER = 326.9622
MEAN_ANOMALY   = 33.0393

EPHEMERIS_TYPE = 0
CLASSIFICATION_TYPE = U
NORAD_CAT_ID   = 26070
ELEMENT_SET_NO = 999
REV_AT_EPOCH   = 33440
BSTAR          = .19765E-3
MEAN_MOTION_DOT = .341E-5
MEAN_MOTION_DDOT = 0

CCSDS_OMM_VERS = 2.0
CREATION_DATE  = 
ORIGINATOR     = 

OBJECT_NAME    = TITAN 4B R/B
OBJECT_ID      = 2000-047B
CENTER_NAME    = EARTH
REF_FRAME      = TEME
TIME_SYSTEM    = UTC
MEAN_ELEMENT_THEORY = SGP/SGP4

EPOCH          = 2025-11-29T19:34:06.291840
MEAN_MOTION    = 15.08632229
ECCENTRICITY   = .0039889
INCLINATION    = 67.9899
RA_OF_ASC_NODE = 321.1502
ARG_OF_PERICENTER = 159.7641
MEAN_ANOMALY   = 200.5100

EPHEMERIS_TYPE = 0
CLASSIFICATION_TYPE = U
NORAD_CAT_ID   = 26474
ELEMENT_SET_NO = 999
REV_AT_EPOCH   = 37784
BSTAR          = .2378E-3
MEAN_MOTION_DOT = .3664E-4
MEAN_MOTION_DDOT = 0

