ORBVIEW 2 (SEASTAR)     
1 24883U 97037A   25333.67112597  .00000316  00000+0  12615-3 0  9992
2 24883  98.8451 130.4170 0002319  20.5686 339.5592 14.35401001494125
SL-16 R/B               
1 25400U 98043G   25333.81791248  .00000084  00000+0  53969-4 0  9998
2 25400  98.8105 281.5650 0008996 308.4745  51.5627 14.26020493424753
SL-16 R/B               
1 25407U 98045B   25333.55617569  .00000264  00000+0  15736-3 0  9990
2 25407  71.0127  32.1517 0007719 195.9603 164.1278 14.16173223412921
ISS (ZARYA)             
1 25544U 98067A   25333.83453771  .00008010  00000+0  15237-3 0  9993
2 25544  51.6312 206.3646 0003723 184.1118 175.9840 15.49193835540850
CZ-4B R/B               
1 25732U 99025C   25333.70706279  .00000077  00000+0  58096-4 0  9993
2 25732  98.6789  15.2775 0036048 272.4922 197.3685 14.18238514373991
OKEAN-O                 
1 25860U 99039A   25333.74236547  .00000783  00000+0  11014-3 0  9992
2 25860  97.9622  29.5556 0000938  74.0002 286.1313 14.80125484419604
SL-16 R/B               
1 25861U 99039B   25333.74995453  .00000667  00000+0  91796-4 0  9998
2 25861  98.0145  27.8993 0013991 217.5694 142.4542 14.81556096422067
DELTA 2 R/B             
1 25876U 99041E   25333.75483946  .00001001  00000+0  20114-3 0  9995
2 25876  51.7621 340.2786 0504880  53.5014 311.1340 14.11346700348910
HELIOS 1B               
1 25977U 99064A   25333.75124020  .00001868  00000+0  21408-3 0  9995
2 25977  98.1752 228.0322 0002268  59.9998 300.1442 14.87196351670406
TERRA                   
1 25994U 99068A   25333.79008487  .00000510  00000+0  11334-3 0  9990
2 25994  97.9768  25.9484 0003302 124.0808 300.6715 14.60928550380496
SL-16 R/B               
1 26070U 00006B   25333.68693155  .00000341  00000+0  19765-3 0  9998
2 26070  71.0023 308.1027 0017708 326.9622  33.0393 14.15804654334407
TITAN 4B R/B            
1 26474U 00047B   25333.81535060  .00003664  00000+0  23780-3 0  9999
2 26474  67.9899 321.1502 0039889 159.7641 200.5100 15.08632229377842
